OBJECT_NAME,OBJECT_ID,EPOCH,MEAN_MOTION,ECCENTRICITY,INCLINATION,RA_OF_ASC_NODE,ARG_OF_PERICENTER,MEAN_ANOMALY,EPHEMERIS_TYPE,CLASSIFICATION_TYPE,NORAD_CAT_ID,ELEMENT_SET_NO,REV_AT_EPOCH,BSTAR,MEAN_MOTION_DOT,MEAN_MOTION_DDOT
LEMUR-1,2014-033AL,2026-07-04T03:15:58.929408,14.85310183,.00487103,97.7895,334.5665,24.1517,336.1967,0,U,40044,999,64798,.25543302E-3,.2186E-4,0
LEMUR-2-GREENBERG,2017-042N,2026-07-04T11:10:53.955264,15.31879629,.00072799,97.3827,6.0171,305.7985,54.2579,0,U,42837,999,49103,.8094247E-3,.24909E-3,0
LEMUR-2-ANDIS,2017-042P,2026-07-04T06:13:22.012320,15.35550599,.00072231,97.3685,6.0558,304.5319,55.5242,0,U,42838,999,49107,.97068298E-3,.33593E-3,0
LEMUR-2-MONSON,2017-042Q,2026-07-04T06:00:41.362272,15.28515854,.00052037,97.4090,5.7483,295.2682,64.8018,0,U,42839,999,49077,.78238365E-3,.21683E-3,0
LEMUR-2-FURIAUS,2017-042R,2026-07-04T05:02:39.733440,15.30826092,.00069078,97.3776,3.6789,12.1279,348.0127,0,U,42840,999,49081,.81030711E-3,.24129E-3,0
LEMUR-2-PETERG,2017-042S,2026-07-04T06:05:32.782560,15.34660691,.00027863,97.3995,10.3194,274.0784,86.0140,0,U,42841,999,49105,.11011809E-2,.37047E-3,0
LEMUR-2-DEMBITZ,2017-042T,2026-07-04T05:30:56.306304,15.30823643,.00054167,97.3827,6.7348,323.7890,36.2983,0,U,42842,999,49095,.76622102E-3,.228E-3,0
LEMUR-2-ZACHARY,2017-042W,2026-07-04T11:31:59.005056,15.51861061,.00023842,97.3588,17.5017,302.0991,58.0030,0,U,42845,999,49188,.12488935E-2,.75267E-3,0
LEMUR-2-AMANDA-SVANTE,2021-034B,2026-07-03T17:19:57.056160,15.35322296,.00038687,97.5753,263.4542,168.8216,191.3113,0,U,48269,999,28359,.10611829E-2,.36457E-3,0
LEMUR-2-SPECIAL-K,2021-034F,2026-07-04T12:25:10.405056,15.70518084,.00056144,97.5637,273.7005,222.0679,138.0153,0,U,48273,999,28440,.31040161E-2,.398477E-2,0
LEMUR-2-EMBRIONOVIS,2023-084AQ,2026-07-04T15:22:55.415424,15.38015741,.00076417,97.6316,330.5169,248.0379,112.0053,0,U,56970,999,17036,.69115305E-3,.25842E-3,0
LEMUR-2-DEVERILL-M-T,2023-100F,2026-07-04T09:16:21.262944,15.40635469,.000493,99.4455,229.1218,344.4163,15.6925,0,U,57391,999,16389,.97150052E-3,.39648E-3,0
LEMUR-2-BASS,2023-174D,2026-07-03T17:50:34.417824,15.43659511,.00080493,97.3847,269.6928,112.3430,247.8671,0,U,58259,999,14791,.45158793E-3,.20308E-3,0
LEMUR-2-JK0903EM1407,2023-174CJ,2026-07-04T05:29:11.628384,15.52578542,.00044652,97.3923,276.1897,68.8565,291.3164,0,U,58336,999,14837,.63367869E-3,.38967E-3,0
LEMUR-2-MJR092620,2023-174CN,2026-07-04T12:20:37.965120,15.45546370,.00062054,97.3975,275.8694,65.5040,294.6855,0,U,58340,999,14832,.80160339E-3,.38574E-3,0
LEMUR-2-NIMBUS2000,2024-022A,2026-07-04T00:49:27.114240,15.40707114,.00097682,97.4090,35.2523,64.6794,295.5463,0,U,58899,999,13486,.71326549E-3,.29162E-3,0
LEMUR-2-VALHALLA,2024-022B,2026-07-04T00:50:24.555552,15.40195193,.00102849,97.4085,35.2329,60.2993,299.9276,0,U,58900,999,13486,.49675526E-3,.19924E-3,0
LEMUR-2-CAEL,2024-022E,2026-07-04T00:43:47.639136,15.41534845,.00083407,97.4069,36.1943,46.7317,313.4624,0,U,58903,999,13493,.5135776E-3,.21527E-3,0
LEMUR-2-JOHNNYTRUONG,2024-043BA,2026-07-04T09:25:47.735040,15.61818849,.00045551,97.5391,338.1783,124.7433,235.4254,0,U,59146,999,13072,.65451893E-3,.56885E-3,0
LEMUR-2-TOMATOKECHUP,2024-149D,2026-07-04T11:58:44.494176,15.36409366,.00028039,97.3793,267.5937,142.1058,218.0383,0,U,60471,999,10482,.60014404E-3,.21268E-3,0
LEMUR-2-STELLA,2024-149BT,2026-07-03T18:13:18.349824,15.12166400,.00012692,97.6735,267.2900,101.6081,258.5292,0,U,60533,999,10300,.78153269E-3,.13429E-3,0
LEMUR-2-MARHISYAM,2024-149BW,2026-07-04T05:01:04.894752,15.11598158,.00031353,97.6878,268.2083,87.7673,272.3915,0,U,60536,999,10305,.80573388E-3,.13632E-3,0
LEMUR-2-AHMED-ASRAR,2024-149DN,2026-07-04T11:47:15.035136,15.13116309,.00004177,97.7006,270.6523,299.3717,60.7472,0,U,60576,999,10318,.1039636E-2,.18378E-3,0
LEMUR-2-LLOYD,2024-149DP,2026-07-04T11:27:29.336832,15.09588412,.00052091,97.6743,266.6189,97.3125,262.8696,0,U,60577,999,10300,.10076342E-2,.16153E-3,0
LEMUR-2-SQUIRRELCOMM,2024-149DQ,2026-07-04T02:49:52.955328,15.07345620,.00050544,97.6701,265.9770,7.4037,352.7264,0,U,60578,999,10295,.55792777E-3,.8376E-4,0
LEMUR-2-SIERRINI,2024-149DR,2026-07-04T12:01:12.309888,15.11339599,.00064751,97.6840,268.1731,118.1822,242.0062,0,U,60579,999,10307,.14691264E-2,.24779E-3,0
LEMUR-2-WILSON,2025-009CP,2026-07-04T11:52:27.427296,14.95245400,.00027651,97.7019,263.6559,12.1137,348.0150,0,U,62694,999,7994,.39713671E-3,.4314E-4,0
LEMUR-2-STAR-FOX,2025-009CR,2026-07-04T11:21:42.365664,15.02737852,.00037355,97.6936,266.9592,76.2779,283.8862,0,U,62696,999,8015,.82179533E-3,.10932E-3,0
LEMUR-2-ARIANNA,2025-009CU,2026-07-04T11:19:29.781408,15.02735635,.0004059,97.6877,266.7187,80.8068,279.3616,0,U,62699,999,8015,.82932961E-3,.11032E-3,0
